{
  "norad_id": 58045,
  "name": "STARLINK-30550",
  "history": [
    {
      "epoch": "2026-03-28T19:31:36.204672Z",
      "apogee_km": 475.99102942626723,
      "perigee_km": 474.46917072802444,
      "latitude_deg": -1.623142174508004e-05,
      "longitude_deg": 153.3895651754871,
      "height_km": 476.213096304281,
      "semi_major_axis_km": 6853.367100077146,
      "eccentricity": 0.00011103,
      "inclination_deg": 53.1614,
      "raan_deg": 272.5191,
      "arg_perigee_deg": 96.3792,
      "mean_anomaly_deg": 263.7335,
      "mean_motion_rev_day": 15.30194966
    },
    {
      "epoch": "2026-03-29T04:55:55.823808Z",
      "apogee_km": 475.9390573999117,
      "perigee_km": 474.55193278290426,
      "latitude_deg": 3.8631639884212474e-05,
      "longitude_deg": 10.101991584586045,
      "height_km": 476.24366175158485,
      "semi_major_axis_km": 6853.382495091408,
      "eccentricity": 0.0001012,
      "inclination_deg": 53.1611,
      "raan_deg": 270.6995,
      "arg_perigee_deg": 98.2584,
      "mean_anomaly_deg": 261.8532,
      "mean_motion_rev_day": 15.3018981
    },
    {
      "epoch": "2026-03-30T04:26:43.113408Z",
      "apogee_km": 475.8609830656769,
      "perigee_km": 474.57762356431795,
      "latitude_deg": 6.864759575108822e-06,
      "longitude_deg": 11.887778353221758,
      "height_km": 476.0916863325862,
      "semi_major_axis_km": 6853.356303314997,
      "eccentricity": 9.363e-05,
      "inclination_deg": 53.1599,
      "raan_deg": 266.148,
      "arg_perigee_deg": 87.6661,
      "mean_anomaly_deg": 272.4447,
      "mean_motion_rev_day": 15.30198582
    },
    {
      "epoch": "2026-03-30T12:16:59.228832Z",
      "apogee_km": 475.92550573773224,
      "perigee_km": 474.5101508985881,
      "latitude_deg": 1.0149173406188689e-05,
      "longitude_deg": -107.51705383483704,
      "height_km": 476.1563849596343,
      "semi_major_axis_km": 6853.35482831816,
      "eccentricity": 0.00010326,
      "inclination_deg": 53.1605,
      "raan_deg": 264.6322,
      "arg_perigee_deg": 93.2489,
      "mean_anomaly_deg": 266.863,
      "mean_motion_rev_day": 15.30199076
    },
    {
      "epoch": "2026-03-30T18:33:12.605184Z",
      "apogee_km": 476.0834297903293,
      "perigee_km": 474.41983823330884,
      "latitude_deg": -1.1028356155595926e-05,
      "longitude_deg": 156.95768043766336,
      "height_km": 476.23199061208305,
      "semi_major_axis_km": 6853.388634011819,
      "eccentricity": 0.00012137,
      "inclination_deg": 53.1601,
      "raan_deg": 263.4202,
      "arg_perigee_deg": 95.6707,
      "mean_anomaly_deg": 264.4432,
      "mean_motion_rev_day": 15.30187754
    },
    {
      "epoch": "2026-03-31T18:04:00.832224Z",
      "apogee_km": 475.81371346319884,
      "perigee_km": 474.68701658038935,
      "latitude_deg": 3.559834082109763e-06,
      "longitude_deg": 158.73898574862508,
      "height_km": 476.0697190266312,
      "semi_major_axis_km": 6853.387365021794,
      "eccentricity": 8.22e-05,
      "inclination_deg": 53.1605,
      "raan_deg": 258.8681,
      "arg_perigee_deg": 81.8994,
      "mean_anomaly_deg": 278.21,
      "mean_motion_rev_day": 15.30188179
    },
    {
      "epoch": "2026-04-01T17:34:48.074304Z",
      "apogee_km": 476.0327562564398,
      "perigee_km": 474.43180919199585,
      "latitude_deg": 3.936611756743266e-05,
      "longitude_deg": 160.52702203459967,
      "height_km": 476.10755463202383,
      "semi_major_axis_km": 6853.369282724218,
      "eccentricity": 0.0001168,
      "inclination_deg": 53.1609,
      "raan_deg": 254.3186,
      "arg_perigee_deg": 88.3512,
      "mean_anomaly_deg": 271.7623,
      "mean_motion_rev_day": 15.30194235
    },
    {
      "epoch": "2026-04-02T20:13:40.887840Z",
      "apogee_km": 476.25650550370847,
      "perigee_km": 474.15527057423606,
      "latitude_deg": 6.319857669977787e-05,
      "longitude_deg": 114.55258967329908,
      "height_km": 475.80715973835584,
      "semi_major_axis_km": 6853.342888038972,
      "eccentricity": 0.0001533,
      "inclination_deg": 53.1658,
      "raan_deg": 249.1586,
      "arg_perigee_deg": 73.5708,
      "mean_anomaly_deg": 286.5462,
      "mean_motion_rev_day": 15.30203075
    },
    {
      "epoch": "2026-04-02T20:13:40.888704Z",
      "apogee_km": 476.2568481708522,
      "perigee_km": 474.1549279070914,
      "latitude_deg": 5.8774716524526374e-05,
      "longitude_deg": 114.55258276817854,
      "height_km": 475.8070628228555,
      "semi_major_axis_km": 6853.342888038972,
      "eccentricity": 0.00015335,
      "inclination_deg": 53.1658,
      "raan_deg": 249.1586,
      "arg_perigee_deg": 73.5708,
      "mean_anomaly_deg": 286.5462,
      "mean_motion_rev_day": 15.30203075
    },
    {
      "epoch": "2026-04-03T19:44:31.966944Z",
      "apogee_km": 476.19820450874977,
      "perigee_km": 474.42590258350356,
      "latitude_deg": 5.994794183264503e-05,
      "longitude_deg": 116.32386429580609,
      "height_km": 476.13040449253265,
      "semi_major_axis_km": 6853.449053546126,
      "eccentricity": 0.0001293,
      "inclination_deg": 53.1603,
      "raan_deg": 244.6084,
      "arg_perigee_deg": 84.8391,
      "mean_anomaly_deg": 275.2758,
      "mean_motion_rev_day": 15.30167519
    },
    {
      "epoch": "2026-04-04T19:15:17.613216Z",
      "apogee_km": 476.44165127769975,
      "perigee_km": 474.0114485628974,
      "latitude_deg": 3.131714807652137e-05,
      "longitude_deg": 118.11601795352274,
      "height_km": 476.1896424572481,
      "semi_major_axis_km": 6853.363549920298,
      "eccentricity": 0.0001773,
      "inclination_deg": 53.1601,
      "raan_deg": 240.0564,
      "arg_perigee_deg": 93.1003,
      "mean_anomaly_deg": 267.0201,
      "mean_motion_rev_day": 15.30196155
    },
    {
      "epoch": "2026-04-05T14:03:57.406176Z",
      "apogee_km": 476.1844979895768,
      "perigee_km": 474.4317979274374,
      "latitude_deg": 1.315475155565003e-05,
      "longitude_deg": -168.4609433362737,
      "height_km": 476.2729749452074,
      "semi_major_axis_km": 6853.445147958507,
      "eccentricity": 0.00012787,
      "inclination_deg": 53.1607,
      "raan_deg": 236.4178,
      "arg_perigee_deg": 94.365,
      "mean_anomaly_deg": 265.7497,
      "mean_motion_rev_day": 15.30168827
    },
    {
      "epoch": "2026-04-05T18:46:06.250656Z",
      "apogee_km": 476.2333218610038,
      "perigee_km": 474.3075143765118,
      "latitude_deg": -3.9638553578790286e-05,
      "longitude_deg": 119.89854194213329,
      "height_km": 476.2214253642019,
      "semi_major_axis_km": 6853.407418118757,
      "eccentricity": 0.0001405,
      "inclination_deg": 53.1607,
      "raan_deg": 235.5073,
      "arg_perigee_deg": 93.1578,
      "mean_anomaly_deg": 266.9583,
      "mean_motion_rev_day": 15.30181463
    },
    {
      "epoch": "2026-04-05T18:46:06.251520Z",
      "apogee_km": 476.23318479285444,
      "perigee_km": 474.3076514446602,
      "latitude_deg": -3.7799271630055866e-05,
      "longitude_deg": 119.89853970258598,
      "height_km": 476.2214178141731,
      "semi_major_axis_km": 6853.407418118757,
      "eccentricity": 0.00014048,
      "inclination_deg": 53.1607,
      "raan_deg": 235.5073,
      "arg_perigee_deg": 93.1578,
      "mean_anomaly_deg": 266.9583,
      "mean_motion_rev_day": 15.30181463
    },
    {
      "epoch": "2026-04-07T08:23:23.096832Z",
      "apogee_km": 476.01572154008227,
      "perigee_km": 474.4712437145181,
      "latitude_deg": 2.8638640774700037e-05,
      "longitude_deg": -93.2465572730093,
      "height_km": 476.18776825001777,
      "semi_major_axis_km": 6853.3804826273,
      "eccentricity": 0.00011268,
      "inclination_deg": 53.1617,
      "raan_deg": 228.2274,
      "arg_perigee_deg": 93.403,
      "mean_anomaly_deg": 266.71,
      "mean_motion_rev_day": 15.30190484
    },
    {
      "epoch": "2026-04-07T16:13:40.675008Z",
      "apogee_km": 476.2793921566672,
      "perigee_km": 474.37001772567055,
      "latitude_deg": 2.672217755765213e-06,
      "longitude_deg": 147.34217592523072,
      "height_km": 476.28975593112534,
      "semi_major_axis_km": 6853.461704941168,
      "eccentricity": 0.0001393,
      "inclination_deg": 53.161,
      "raan_deg": 226.7113,
      "arg_perigee_deg": 94.0273,
      "mean_anomaly_deg": 266.0887,
      "mean_motion_rev_day": 15.30163282
    },
    {
      "epoch": "2026-04-08T14:10:23.988288Z",
      "apogee_km": 475.99499126902356,
      "perigee_km": 474.4806695664947,
      "latitude_deg": 2.551190689698613e-06,
      "longitude_deg": 173.01113695460475,
      "height_km": 476.3346329911313,
      "semi_major_axis_km": 6853.374830417759,
      "eccentricity": 0.00011048,
      "inclination_deg": 53.1614,
      "raan_deg": 222.462,
      "arg_perigee_deg": 105.1834,
      "mean_anomaly_deg": 254.9289,
      "mean_motion_rev_day": 15.30192377
    },
    {
      "epoch": "2026-04-09T12:07:08.747040Z",
      "apogee_km": 475.80451750988686,
      "perigee_km": 474.69015721663163,
      "latitude_deg": -3.521728445180174e-05,
      "longitude_deg": -161.32426931249626,
      "height_km": 476.3792869346668,
      "semi_major_axis_km": 6853.384337363259,
      "eccentricity": 8.13e-05,
      "inclination_deg": 53.1623,
      "raan_deg": 218.2144,
      "arg_perigee_deg": 114.7107,
      "mean_anomaly_deg": 245.3978,
      "mean_motion_rev_day": 15.30189193
    }
  ]
}